OBJECT_NAME,OBJECT_ID,EPOCH,MEAN_MOTION,ECCENTRICITY,INCLINATION,RA_OF_ASC_NODE,ARG_OF_PERICENTER,MEAN_ANOMALY,EPHEMERIS_TYPE,CLASSIFICATION_TYPE,NORAD_CAT_ID,ELEMENT_SET_NO,REV_AT_EPOCH,BSTAR,MEAN_MOTION_DOT,MEAN_MOTION_DDOT
M2 PATHFINDER,2020-037E,2026-07-15T12:11:44.133216,15.04791762,.0012891,97.8142,28.0603,61.5732,298.6791,0,U,45727,999,32975,.48205888E-4,.617E-5,0
NETSAT-4,2020-068U,2026-07-15T23:00:01.837440,15.44772905,.00048472,97.8601,207.5313,190.7378,169.3766,0,U,46504,999,32021,.22858579E-3,.10601E-3,0
NETSAT-3,2020-068V,2026-07-15T23:40:17.218560,15.43625105,.00039282,97.8652,205.7431,207.3174,152.7867,0,U,46505,999,32012,.23933825E-3,.10678E-3,0
NETSAT-1,2020-068W,2026-07-15T22:46:59.457792,15.35255548,.00025024,97.8751,199.6882,257.3559,102.7403,0,U,46506,999,31971,.20128759E-3,.6801E-4,0
NETSAT-2,2020-068X,2026-07-15T22:56:42.854784,15.47184840,.00022407,97.8611,207.5344,204.9560,155.1580,0,U,46507,999,32018,.28052919E-3,.1416E-3,0
GREENCUBE (IO-117),2022-080E,2026-07-15T04:46:20.871552,6.42583355,.00090693,70.1411,288.5050,283.3508,76.6141,0,U,53109,999,9386,0,-.3E-7,0
SITRO-AIS 5 (KATYS),2023-091L,2026-07-15T21:59:16.668960,15.30074218,.00105811,97.5045,261.0991,10.0080,350.1369,0,U,57176,999,16873,.23037507E-3,.6637E-4,0
SITRO-AIS 6 (CHIRKIN),2023-091AC,2026-07-15T21:31:27.342336,15.26445135,.0011079,97.5052,260.0439,14.1579,345.9968,0,U,57192,999,16866,.20214614E-3,.5201E-4,0
SITRO-AIS 8 (ANOKHIN),2023-091AD,2026-07-15T22:43:54.314688,15.32869883,.00094495,97.5042,262.8388,5.4764,354.6579,0,U,57193,999,16885,.26052229E-3,.8201E-4,0
SITRO-AIS 7 (FARTUSHNIY),2023-091AE,2026-07-15T21:44:37.363200,15.26118846,.00110684,97.5049,259.8628,15.4145,344.7428,0,U,57194,999,16865,.20049122E-3,.5107E-4,0
SITRO-AIS 10 (BURDAEV),2023-091AK,2026-07-15T22:04:43.189248,15.39644851,.00047911,97.5069,268.1687,338.2663,21.8378,0,U,57199,999,16918,.29540601E-3,.11571E-3,0
SITRO-AIS 9 (SHCHUKIN),2023-091AM,2026-07-15T21:22:37.309440,15.39128223,.00050757,97.5067,267.8458,338.8909,21.2126,0,U,57201,999,16916,.2982052E-3,.11486E-3,0
SITRO-AIS 12 (SMIRENNIY),2023-091AQ,2026-07-15T22:34:50.532096,15.39425215,.00046246,97.5080,268.3825,330.8430,29.2556,0,U,57204,999,16919,.28668301E-3,.11145E-3,0
SITRO-AIS 11 (SHEFFER),2023-091AU,2026-07-15T22:42:28.824480,15.39868832,.00045177,97.5079,268.6528,330.1443,29.9544,0,U,57208,999,16921,.29335893E-3,.11575E-3,0
SITRO-AIS 25,2024-039R,2026-07-15T23:36:33.063264,14.93645290,.01428409,95.3892,254.8808,226.7300,132.1937,0,U,59066,999,12902,.14341576E-3,.1816E-4,0
SITRO-AIS 26,2024-039S,2026-07-15T22:07:45.401664,14.93436916,.01431682,95.3892,254.7300,227.5694,131.3352,0,U,59067,999,12900,.13280991E-3,.1671E-4,0
SITRO-AIS 27,2024-039T,2026-07-15T22:49:41.965824,14.93860523,.01422437,95.3897,255.0353,225.9763,132.9673,0,U,59068,999,12903,.10274511E-3,.1296E-4,0
SITRO-AIS 28,2024-039U,2026-07-15T22:16:17.637024,14.93895390,.01421363,95.3896,255.0681,225.9079,133.0379,0,U,59071,999,12903,.1268631E-3,.161E-4,0
GRBBETA,2024-128C,2026-07-15T21:20:48.715008,15.06811021,.00369464,61.9898,115.5506,140.8155,219.5624,0,U,60237,999,11059,.12321523E-3,.165E-4,0
OOV-CUBE (TUBSAT-30),2024-128F,2026-07-15T22:22:38.710272,15.02875517,.00410255,61.9938,125.3314,140.2024,220.2089,0,U,60240,999,11043,.8501651E-4,.949E-5,0
ROBUSTA-3A (MEDITERRANEE),2024-128J,2026-07-15T23:19:47.006112,15.11993779,.00380405,61.9866,106.4265,133.9070,226.5177,0,U,60243,999,11077,.23673881E-3,.3925E-4,0
LASARSAT,2024-247Q,2026-07-15T18:30:32.971680,15.48070783,.00074837,44.9738,101.3785,169.7911,190.3132,0,U,62391,999,8774,.44538181E-3,.23596E-3,0
CROCUBE,2024-247T,2026-07-15T02:05:50.091648,15.50189566,.0007544,44.9722,102.0802,171.5148,188.5872,0,U,62394,999,8767,.45369582E-3,.25934E-3,0
FORESAIL-1 PRIME,2025-276DS,2026-07-15T18:53:27.703680,15.18941111,.00028523,97.4192,269.5370,43.1947,316.9511,0,U,66778,999,3474,.11377392E-3,.2309E-4,0
KNACKSAT-2,1998-067XZ,2026-07-15T21:33:33.429312,15.62452745,.00079557,51.6272,149.7820,330.4506,29.6038,0,U,67683,999,2476,.37935829E-3,.34031E-3,0
