M2 PATHFINDER           
1 45727U 20037E   26196.50814969  .00000617  00000+0  48206-4 0  9990
2 45727  97.8142  28.0603 0012891  61.5732 298.6791 15.04791762329752
NETSAT-4                
1 46504U 20068U   26196.95835460  .00010601  00000+0  22859-3 0  9995
2 46504  97.8601 207.5313 0004847 190.7378 169.3766 15.44772905320211
NETSAT-3                
1 46505U 20068V   26196.98631040  .00010678  00000+0  23934-3 0  9996
2 46505  97.8652 205.7431 0003928 207.3174 152.7867 15.43625105320123
NETSAT-1                
1 46506U 20068W   26196.94929928  .00006801  00000+0  20129-3 0  9994
2 46506  97.8751 199.6882 0002502 257.3559 102.7403 15.35255548319719
NETSAT-2                
1 46507U 20068X   26196.95605156  .00014160  00000+0  28053-3 0  9991
2 46507  97.8611 207.5344 0002240 204.9560 155.1580 15.47184840320186
GREENCUBE (IO-117)      
1 53109U 22080E   26196.19885268 -.00000003  00000+0  00000+0 0  9993
2 53109  70.1411 288.5050 0009069 283.3508  76.6141  6.42583355 93867
SITRO-AIS 5 (KATYS)     
1 57176U 23091L   26196.91616515  .00006637  00000+0  23038-3 0  9999
2 57176  97.5045 261.0991 0010581  10.0080 350.1369 15.30074218168733
SITRO-AIS 6 (CHIRKIN)   
1 57192U 23091AC  26196.89684424  .00005201  00000+0  20215-3 0  9998
2 57192  97.5052 260.0439 0011079  14.1579 345.9968 15.26445135168660
SITRO-AIS 8 (ANOKHIN)   
1 57193U 23091AD  26196.94715642  .00008201  00000+0  26052-3 0  9990
2 57193  97.5042 262.8388 0009449   5.4764 354.6579 15.32869883168853
SITRO-AIS 7 (FARTUSHNIY)
1 57194U 23091AE  26196.90598800  .00005107  00000+0  20049-3 0  9994
2 57194  97.5049 259.8628 0011068  15.4145 344.7428 15.26118846168658
SITRO-AIS 10 (BURDAEV)  
1 57199U 23091AK  26196.91994432  .00011571  00000+0  29541-3 0  9999
2 57199  97.5069 268.1687 0004791 338.2663  21.8378 15.39644851169189
SITRO-AIS 9 (SHCHUKIN)  
1 57201U 23091AM  26196.89070960  .00011486  00000+0  29821-3 0  9997
2 57201  97.5067 267.8458 0005075 338.8909  21.2126 15.39128223169161
SITRO-AIS 12 (SMIRENNIY)
1 57204U 23091AQ  26196.94086264  .00011145  00000+0  28668-3 0  9990
2 57204  97.5080 268.3825 0004624 330.8430  29.2556 15.39425215169192
SITRO-AIS 11 (SHEFFER)  
1 57208U 23091AU  26196.94616695  .00011575  00000+0  29336-3 0  9991
2 57208  97.5079 268.6528 0004517 330.1443  29.9544 15.39868832169218
SITRO-AIS 25            
1 59066U 24039R   26196.98371601  .00001816  00000+0  14342-3 0  9995
2 59066  95.3892 254.8808 0142840 226.7300 132.1937 14.93645290129021
SITRO-AIS 26            
1 59067U 24039S   26196.92205326  .00001671  00000+0  13281-3 0  9990
2 59067  95.3892 254.7300 0143168 227.5694 131.3352 14.93436916129000
SITRO-AIS 27            
1 59068U 24039T   26196.95118016  .00001296  00000+0  10275-3 0  9996
2 59068  95.3897 255.0353 0142243 225.9763 132.9673 14.93860523129031
SITRO-AIS 28            
1 59071U 24039U   26196.92798191  .00001610  00000+0  12686-3 0  9993
2 59071  95.3896 255.0681 0142136 225.9079 133.0379 14.93895390129034
GRBBETA                 
1 60237U 24128C   26196.88945272  .00001650  00000+0  12322-3 0  9998
2 60237  61.9898 115.5506 0036946 140.8155 219.5624 15.06811021110596
OOV-CUBE (TUBSAT-30)    
1 60240U 24128F   26196.93239248  .00000949  00000+0  85017-4 0  9999
2 60240  61.9938 125.3314 0041025 140.2024 220.2089 15.02875517110437
ROBUSTA-3A (MEDITERRAN*)
1 60243U 24128J   26196.97207183  .00003925  00000+0  23674-3 0  9996
2 60243  61.9866 106.4265 0038040 133.9070 226.5177 15.11993779110773
LASARSAT                
1 62391U 24247Q   26196.77121495  .00023596  00000+0  44538-3 0  9991
2 62391  44.9738 101.3785 0007483 169.7911 190.3132 15.48070783 87747
CROCUBE                 
1 62394U 24247T   26196.08738532  .00025934  00000+0  45370-3 0  9997
2 62394  44.9722 102.0802 0007544 171.5148 188.5872 15.50189566 87677
FORESAIL-1 PRIME        
1 66778U 25276DS  26196.78712620  .00002309  00000+0  11377-3 0  9998
2 66778  97.4192 269.5370 0002852  43.1947 316.9511 15.18941111 34741
KNACKSAT-2              
1 67683U 98067XZ  26196.89830358  .00034031  00000+0  37936-3 0  9999
2 67683  51.6272 149.7820 0007955 330.4506  29.6038 15.62452745 24761
